IRIDIUM 63              
1 25286U 98021B   25181.76231138  .00000235  00000+0  73178-4 0  9990
2 25286  86.3967  76.4376 0002036  87.5452 272.5978 14.36553716425797
IRIDIUM 69              
1 25319U 98026A   25181.80275276  .00000349  00000+0  10259-3 0  9994
2 25319  86.3967  89.6705 0002788  29.6904 330.4454 14.40978506425021
IRIDIUM 71              
1 25320U 98026B   25181.80780132  .00000319  00000+0  92746-4 0  9997
2 25320  86.3963  84.3562 0004017  63.5787 296.5824 14.41167255425558
IRIDIUM 73              
1 25344U 98032C   25181.84747438  .00000328  00000+0  76653-4 0  9995
2 25344  86.4402  41.0138 0001769  73.6239 286.5161 14.51726179432544
IRIDIUM 82              
1 25467U 98051A   25181.80454206  .00015548  00000+0  44062-3 0  9994
2 25467  86.3665 103.0405 0081174 243.7713 115.5178 15.32791335426044
